STARLINK-6170           
1 57129U 23090AE  25069.30071442  .00000140  00000+0  25428-4 0  9990
2 57129  43.0039  82.1487 0000991 261.4577  98.6153 15.02536044 94607
STARLINK-6172           
1 57130U 23090AF  25070.16122282 -.00000501  00000+0 -22036-4 0  9992
2 57130  43.0025  89.5783 0001319 265.6975  94.3717 15.02536229 94599
STARLINK-6162           
1 57131U 23090AG  25069.42923449 -.00001566  00000+0 -10089-3 0  9990
2 57131  43.0038  81.3915 0001216 264.2492  95.8211 15.02529993 95570
STARLINK-6128           
1 57132U 23090AH  25070.15456862 -.00000618  00000+0 -30681-4 0  9991
2 57132  43.0021  89.5317 0001140 266.1955  93.8757 15.02529929 94593
STARLINK-6143           
1 57133U 23090AJ  25069.74828015 -.00019405  00000+0 -14225-2 0  9996
2 57133  43.0039  79.4849 0001702 253.2892 106.7764 15.02611125 95629
STARLINK-6133           
1 57134U 23090AK  25070.09511952 -.00000292  00000+0 -65641-5 0  9991
2 57134  43.0034  77.7848 0001096 266.4532  93.6185 15.02533043 94721
STARLINK-6127           
1 57135U 23090AL  25070.00422106 -.00000082  00000+0  89650-5 0  9997
2 57135  43.0027  77.9614 0001054 271.9275  88.1447 15.02534280 94719
STARLINK-6112           
1 57136U 23090AM  25070.35770131 -.00000308  00000+0 -76950-5 0  9991
2 57136  43.0028  76.3179 0001108 275.0171  85.0545 15.02535294 94766
STARLINK-5347           
1 57137U 23090AN  25070.14495032  .00000888  00000+0  80797-4 0  9997
2 57137  43.0034  77.2981 0001352 266.4879  93.5809 15.02543842 94737
STARLINK-5336           
1 57138U 23090AP  25070.09067956  .00001771  00000+0  14611-3 0  9995
2 57138  43.0035  77.7521 0001277 273.5855  86.4841 15.02536178 94723
STARLINK-5355           
1 57139U 23090AQ  25070.07403183 -.00001396  00000+0 -88315-4 0  9998
2 57139  43.0042  77.6278 0001036 277.3786  82.6939 15.02534129 94728
STARLINK-5357           
1 57141U 23090AS  25070.40084021  .00001815  00000+0  14928-3 0  9996
2 57141  43.0043  75.7804 0001188 308.1888  51.8847 15.02572206 94779
STARLINK-5361           
1 57142U 23090AT  25070.19699068  .00000149  00000+0  26095-4 0  9994
2 57142  43.0023  76.8283 0001101 273.5300  86.5416 15.02538386 94745
STARLINK-5358           
1 57143U 23090AU  25070.19366638  .00000370  00000+0  42421-4 0  9996
2 57143  42.9998  76.8012 0001190 277.6032  82.4675 15.02534305 94749
STARLINK-5150           
1 57144U 23090AV  25069.73943178  .00000302  00000+0  37401-4 0  9992
2 57144  43.0035  79.4125 0001240 274.6058  85.4642 15.02534435 94672
STARLINK-5768           
1 57145U 23090AW  25069.71944464 -.00000909  00000+0 -52245-4 0  9998
2 57145  43.0044  79.2645 0001213 265.5241  94.5463 15.02533412 95623
STARLINK-5791           
1 57146U 23090AX  25070.39086553 -.00000186  00000+0  13301-5 0  9998
2 57146  43.0042  75.7008 0001456 271.3456  88.7220 15.02539282 94770
STARLINK-5765           
1 57147U 23090AY  25070.04741375  .00001039  00000+0  91995-4 0  9992
2 57147  43.0031  77.4220 0000935 250.5403 109.5338 15.02531079 94729
STARLINK-5788           
1 57148U 23090AZ  25070.37309837  .00003572  00000+0  27917-3 0  9998
2 57148  43.0032  75.5678 0001100 263.7593  96.3124 15.02561457 94772
STARLINK-5778           
1 57149U 23090BA  25070.12771075  .00002137  00000+0  17325-3 0  9997
2 57149  43.0041  51.1206 0001075 264.6779  95.3941 15.02532742 95049
STARLINK-5780           
1 57150U 23090BB  25070.05516373 -.00000182  00000+0  16238-5 0  9992
2 57150  43.0026  77.4829 0001046 275.7235  84.3488 15.02530935 94724
STARLINK-5776           
1 57151U 23090BC  25070.18700947 -.00000178  00000+0  18816-5 0  9998
2 57151  43.0030  76.7527 0001148 277.3307  82.7405 15.02536036 94749
STARLINK-6164           
1 57152U 23090BD  25070.38977322 -.00012138  00000+0 -88378-3 0  9992
2 57152  43.0037  75.6947 0001605 263.1340  96.9320 15.02588298 94772
STARLINK-5879           
1 57153U 23090BE  25069.68207823 -.00000062  00000+0  10501-4 0  9992
2 57153  43.0019  66.8213 0001050 264.5804  95.4919 15.02532719 95456
STARLINK-6106           
1 57154U 23090BF  25070.31441598  .00000335  00000+0  39849-4 0  9992
2 57154  43.0015  75.9865 0000957 275.1013  84.9720 15.02531812 94761
STARLINK-6108           
1 57155U 23090BG  25070.03409731 -.00001086  00000+0 -65329-4 0  9993
2 57155  43.0055  77.3257 0001326 280.6270  79.4423 15.02518012 94726
STARLINK-6137           
1 57156U 23090BH  25070.36978679 -.00003379  00000+0 -23515-3 0  9999
2 57156  43.0038  75.5432 0001200 270.1383  89.9321 15.02539766 94770
STARLINK-5525           
1 57218U 23094A   25070.37709910  .00000360  00000+0  41727-4 0  9994
2 57218  43.0017 204.8731 0001333 278.6857  81.3835 15.02536633 92641
STARLINK-5520           
1 57219U 23094B   25070.44025086  .00002056  00000+0  16723-3 0  9999
2 57219  43.0040 204.4864 0001650 263.2679  96.7976 15.02542072 92656
STARLINK-5880           
1 57220U 23094C   25070.35823652 -.00000271  00000+0 -49878-5 0  9994
2 57220  43.0024 204.7279 0001406 264.4746  95.5936 15.02531335 92642
STARLINK-5875           
1 57221U 23094D   25070.37155697 -.00001010  00000+0 -59706-4 0  9996
2 57221  43.0020 204.8298 0001595 267.2923  92.7736 15.02533802 92646
STARLINK-5870           
1 57222U 23094E   25070.49785178 -.00000332  00000+0 -94698-5 0  9999
2 57222  43.0031 204.0582 0001465 273.7810  86.2864 15.02531875 92727
STARLINK-5519           
1 57223U 23094F   25070.10230399  .00000936  00000+0  84378-4 0  9999
2 57223  43.0027 206.2516 0001205 275.6498  84.4207 15.02540353 92608
STARLINK-5983           
1 57224U 23094G   25070.42804300  .00000071  00000+0  20333-4 0  9995
2 57224  43.0026 204.3925 0001283 267.7575  92.3120 15.02533739 92652
STARLINK-6294           
1 57225U 23094H   25069.43975535 -.00001055  00000+0 -63030-4 0  9990
2 57225  43.0018 209.8759 0001339 281.7236  78.3456 15.02531986 92323
STARLINK-6350           
1 57226U 23094J   25070.41694712  .00002007  00000+0  16361-3 0  9996
2 57226  43.0006 204.3069 0001419 285.4724  74.5962 15.02526060 92650
STARLINK-5996           
1 57227U 23094K   25069.75660837  .00000573  00000+0  57471-4 0  9997
2 57227  43.0041 207.9562 0001373 268.9506  91.1179 15.02529081 92370
STARLINK-6230           
1 57228U 23094L   25070.08122276 -.00000001  00000+0  15013-4 0  9999
2 57228  43.0013 206.0883 0001043 269.3372  90.7350 15.02532961 92609
STARLINK-6233           
1 57229U 23094M   25070.08789795 -.00001934  00000+0 -12816-3 0  9999
2 57229  43.0012 206.1407 0001530 269.6234  90.4433 15.02522276 92600
STARLINK-6250           
1 57230U 23094N   25069.67680922 -.00002182  00000+0 -14651-3 0  9991
2 57230  43.0015 208.2141 0000914 269.0290  91.0448 15.02529203 92367
STARLINK-5840           
1 57231U 23094P   25070.38475276 -.00000188  00000+0  11244-5 0  9996
2 57231  43.0022 204.0656 0001155 266.0909  93.9802 15.02534007 92658
STARLINK-5872           
1 57232U 23094Q   25069.65238700 -.00001009  00000+0 -59600-4 0  9995
2 57232  43.0028 208.0278 0001427 272.0932  87.9747 15.02532796 93020
STARLINK-5866           
1 57233U 23094R   25070.05902465 -.00000087  00000+0  86296-5 0  9994
2 57233  43.0032 205.9234 0001393 268.2080  91.8603 15.02535380 92607
STARLINK-6368           
1 57234U 23094S   25070.44789890 -.00000278  00000+0 -55075-5 0  9997
2 57234  43.0018 203.6790 0001086 263.0840  96.9879 15.02535621 92665
STARLINK-6360           
1 57235U 23094T   25070.06124901 -.00000406  00000+0 -14959-4 0  9990
2 57235  43.0033 205.9411 0001187 272.9795  87.0912 15.02531347 92602
STARLINK-6315           
1 57236U 23094U   25069.65720763 -.00000444  00000+0 -17773-4 0  9991
2 57236  43.0035 195.9284 0001580 273.0226  87.0435 15.02527763 92505
STARLINK-6365           
1 57237U 23094V   25069.65681834  .00000583  00000+0  58231-4 0  9993
2 57237  43.0034 208.0654 0001391 268.5522  91.5161 15.02540277 92365
STARLINK-6334           
1 57238U 23094W   25070.04830816 -.00000629  00000+0 -31469-4 0  9992
2 57238  43.0066 193.6996 0001530 277.7589  82.3080 15.02527498 92749
STARLINK-6330           
1 57239U 23094X   25069.78200994  .00001377  00000+0  11702-3 0  9996
2 57239  43.0029 207.2794 0001528 251.0368 109.0309 15.02522504 92388
STARLINK-6351           
1 57240U 23094Y   25069.64055907 -.00000471  00000+0 -19775-4 0  9990
2 57240  43.0036 195.7971 0001200 269.2796  90.7909 15.02530220 92509
STARLINK-6349           
1 57241U 23094Z   25070.05272818 -.00003838  00000+0 -26913-3 0  9991
2 57241  43.0028 193.7335 0001346 267.4501  92.6187 15.02540772 92746
STARLINK-6306           
1 57242U 23094AA  25070.04943715 -.00002781  00000+0 -19099-3 0  9995
2 57242  43.0010 193.7091 0001403 260.8882  99.1802 15.02511905 92742
STARLINK-6346           
1 57243U 23094AB  25070.05163342  .00001671  00000+0  13874-3 0  9997
2 57243  43.0026 193.7257 0001367 272.4874  87.5812 15.02543967 92748
STARLINK-5610           
1 57244U 23094AC  25069.64277586 -.00000600  00000+0 -29326-4 0  9990
2 57244  43.0036 195.8120 0000987 259.0581 101.0151 15.02531832 92505
STARLINK-5587           
1 57245U 23094AD  25069.64610808 -.00002376  00000+0 -16089-3 0  9992
2 57245  43.0012 195.8384 0000839 264.3326  95.7420 15.02534524 92503
STARLINK-5049           
1 57246U 23094AE  25070.34852044 -.00001557  00000+0 -10028-3 0  9999
2 57246  43.0027 191.6485 0001172 268.0473  92.0235 15.02525740 92796
STARLINK-5039           
1 57247U 23094AF  25070.03831242 -.00000383  00000+0 -13285-4 0  9998
2 57247  43.0015 193.6221 0000921 267.1214  92.9523 15.02532770 92743
STARLINK-5514           
1 57248U 23094AG  25070.03499640 -.00001610  00000+0 -10413-3 0  9994
2 57248  43.0058 193.5928 0002910 264.8509  95.2001 15.02515820 92749
STARLINK-5517           
1 57249U 23094AH  25069.76684762 -.00000373  00000+0 -12549-4 0  9992
2 57249  43.0045 194.9656 0001229 273.1570  86.9131 15.02528251 92521
